KAITUO 1B               
1 40912U 15049P   17302.77299573  .00002572  00000-0  12899-3 0  9995
2 40912  97.4521 308.4708 0017373  92.9012 352.9377 15.18106388116702
TIANWANG 1C (TW-1C)     
1 40926U 15051B   17302.82909184  .00014927  00000-0  31503-3 0  9995
2 40926  97.2160 341.4343 0012502  48.6104  38.5724 15.45218305117690
TIANWANG 1B (TW-1B)     
1 40927U 15051C   17302.87310450  .00014758  00000-0  32380-3 0  9999
2 40927  97.2250 341.4328 0012537  57.1261  61.3851 15.44071344117639
TIANWANG 1A (TW-1A)     
1 40928U 15051D   17302.82343697  .00006719  00000-0  18570-3 0  9997
2 40928  97.2143 336.2069 0014288  74.9231  11.5762 15.37260992117374
LAPAN-A2 (IO-86)        
1 40931U 15052B   17302.72936967  .00000737  00000-0  13513-4 0  9996
2 40931   6.0010 353.4054 0013901 347.8989  12.0827 14.76551412112888
LQSAT                   
1 40958U 15057A   17302.81849058  .00000076  00000-0  19609-4 0  9992
2 40958  97.9667  15.7056 0018481 359.8102   0.3080 14.72996291110931
CHUBUSAT-2              
1 41338U 16012B   17302.52533032  .00000621  00000-0  42095-4 0  9998
2 41338  31.0044 339.0118 0013925 309.3392  50.6009 14.99850695 93173
CHUBUSAT-3              
1 41339U 16012C   17302.43545996  .00000658  00000-0  44773-4 0  9996
2 41339  31.0109 338.5172 0013793 314.5640  45.3878 15.00048216 93140
OUFTI-1                 
1 41458U 16025C   17302.81880372  .00004046  00000-0  21659-3 0  9996
2 41458  98.1671 348.0582 0171998 199.2648 160.1988 15.03814182 82804
E-ST@R-II               
1 41459U 16025D   17302.78903119  .00003300  00000-0  17790-3 0  9991
2 41459  98.1726 347.9532 0173024 199.4273 160.0273 15.03624678 82790
AAUSAT 4                
1 41460U 16025E   17302.76506374  .00003902  00000-0  20906-3 0  9994
2 41460  98.1621 348.1250 0164670 197.1790 162.3774 15.04726144 82829
NUSAT 1 (LO-87)         
1 41557U 16033B   17302.78431442  .00002396  00000-0  91408-4 0  9997
2 41557  97.4548  22.2777 0012554 249.5826 110.4065 15.27612154 78973
BEESAT-4                
1 41619U 16040W   17302.13651760  .00002592  00000-0  11871-3 0  9993
2 41619  97.4476   3.1609 0010785 326.5358  33.5196 15.21344774 62959
PRATHAM                 
1 41783U 16059A   17302.84109584  .00000106  00000-0  29916-4 0  9994
2 41783  98.1516   2.7113 0034940  98.4982 262.0182 14.62873234 58283
ALSAT 1N                
1 41789U 16059G   17302.71794241  .00000169  00000-0  41145-4 0  9993
2 41789  98.1523   3.3530 0029878  92.0081 268.4534 14.64093276 58295
NAYIF-1 (EO-88)         
1 42017U 17008BX  17302.57677482  .00002709  00000-0  11608-3 0  9996
2 42017  97.4804   3.7053 0008179 107.3142 252.8990 15.23611018 38946
LILACSAT-1              
1 42725U 98067ME  17302.82078400  .00024976  00000-0  31192-3 0  9999
2 42725  51.6381  84.2805 0005222  92.4284 267.7307 15.59682652 24459
MAX VALIER SAT          
1 42778U 17036P   17302.60027991  .00001848  00000-0  86938-4 0  9991
2 42778  97.4370   0.7760 0013735 151.1186 209.0813 15.20749847 19451
